GLOBALSTAR M001         
1 25162U 98008A   24137.46057534 -.00000081  00000+0  12308-3 0  9998
2 25162  52.0055  47.9016 0001832 113.7012  58.7618 12.38184406194568
GLOBALSTAR M004         
1 25163U 98008B   24137.57527282 -.00000028  00000+0  41868-3 0  9997
2 25163  51.9975 184.0883 0003207 131.6561  28.4469 12.63359773211656
GLOBALSTAR M002         
1 25164U 98008C   24137.35339688 -.00000071  00000+0  11316-3 0  9998
2 25164  51.9978 155.1920 0001244 145.6540 214.4360 11.61502957137950
GLOBALSTAR M003         
1 25165U 98008D   24137.44315508  .00000035  00000+0  13285-2 0  9999
2 25165  51.9841 187.3552 0008167 213.4855 159.5457 12.12002142185117
GLOBALSTAR M014         
1 25306U 98023A   24137.57539355 -.00000061  00000+0  31540-3 0  9990
2 25306  51.9837  86.1940 0001233   2.8313 168.3408 11.65467753144920
GLOBALSTAR M006         
1 25307U 98023B   24137.66718012 -.00000042  00000+0  68476-3 0  9997
2 25307  51.9907 123.6171 0003447 110.2513  61.5987 11.58163629170884
GLOBALSTAR M015         
1 25308U 98023C   24137.58553102 -.00000065  00000+0  19691-3 0  9996
2 25308  51.9804 204.1176 0012577  93.0488  56.3911 11.48852290148493
GLOBALSTAR M008         
1 25309U 98023D   24137.66510716 -.00000080  00000+0  12521-3 0  9992
2 25309  51.9970 267.6464 0002889  73.0910 300.5271 12.36043331189129
